HIMAWARI-8              
1 40267U 14060A   24071.90404417 -.00000286  00000+0  00000+0 0  9998
2 40267   0.0244 191.4779 0001087 139.0765 305.5881  1.00272312 34562
